{
"type": "FeatureCollection",
"name": "Alfalfa_sites_1",
"crs": { "type": "name", "properties": { "name": "urn:ogc:def:crs:OGC:1.3:CRS84" } },
"features": [
{ "type": "Feature", "properties": { "Name": "Alfalfa", "descriptio": "Irrigated crop", "timestamp": null, "begin": null, "end": null, "altitudeMo": null, "tessellate": null, "extrude": null, "visibility": null, "drawOrder": null, "icon": null, "stationId": null, "stationNam": null, "country": null, "Position": null, "pi": null, "siteType": null, "seaElev": null, "stationCla": null, "labelingDa": null, "fill": null, "stroke_wid": null, "stroke": null }, "geometry": { "type": "Point", "coordinates": [ 10.863391275473004, 45.011822074907677 ] } }
]
}
