{
"type": "FeatureCollection",
"name": "Site_Lelystad_area",
"crs": { "type": "name", "properties": { "name": "urn:ogc:def:crs:OGC:1.3:CRS84" } },
"features": [
{ "type": "Feature", "properties": { "id": 1.0, "left": null, "top": null, "right": null, "bottom": null }, "geometry": { "type": "Polygon", "coordinates": [ [ [ 5.546830837283295, 52.531073531129039 ], [ 5.546124166028997, 52.538847553527695 ], [ 5.549898574807197, 52.538840507741924 ], [ 5.550793419428093, 52.531173770052327 ], [ 5.546830837283295, 52.531073531129039 ] ] ] } }
]
}
