{
"type": "FeatureCollection",
"name": "Site_Lelystad",
"crs": { "type": "name", "properties": { "name": "urn:ogc:def:crs:OGC:1.3:CRS84" } },
"features": [
{ "type": "Feature", "properties": { "Name": "Lelystad-Potato-Crops", "descriptio": "Potato cro under plant diseases", "timestamp": null, "begin": null, "end": null, "altitudeMo": null, "tessellate": null, "extrude": null, "visibility": null, "drawOrder": null, "icon": null, "stationId": null, "stationNam": null, "country": null, "Position": null, "pi": null, "siteType": null, "seaElev": null, "stationCla": null, "labelingDa": null, "fill": null, "stroke_wid": null, "stroke": null }, "geometry": { "type": "Point", "coordinates": [ 5.548175841988787, 52.533800987748123 ] } }
]
}
