{
"type": "FeatureCollection",
"name": "Grid_Lelystad_3x3km_300Flex_reproject",
"crs": { "type": "name", "properties": { "name": "urn:ogc:def:crs:OGC:1.3:CRS84" } },
"features": [
{ "type": "Feature", "properties": { "id": 1067.0, "left": 629819.5269000001, "top": 5763416.2893000003, "right": 630119.5269000001, "bottom": 5763116.2893000003 }, "geometry": { "type": "Polygon", "coordinates": [ [ [ 5.527167122131966, 52.550379302041961 ], [ 5.531533247599539, 52.550308654328873 ], [ 5.531418704501919, 52.547612855167323 ], [ 5.527052840853532, 52.547683496073496 ], [ 5.527167122131966, 52.550379302041961 ] ] ] } },
{ "type": "Feature", "properties": { "id": 1068.0, "left": 629819.5269000001, "top": 5763116.2893000003, "right": 630119.5269000001, "bottom": 5762816.2893000003 }, "geometry": { "type": "Polygon", "coordinates": [ [ [ 5.527052840853532, 52.547683496073496 ], [ 5.531418704501919, 52.547612855167323 ], [ 5.531304179368406, 52.544917054585341 ], [ 5.526938577498214, 52.54498768868541 ], [ 5.527052840853532, 52.547683496073496 ] ] ] } },
{ "type": "Feature", "properties": { "id": 1069.0, "left": 629819.5269000001, "top": 5762816.2893000003, "right": 630119.5269000001, "bottom": 5762516.2893000003 }, "geometry": { "type": "Polygon", "coordinates": [ [ [ 5.526938577498214, 52.54498768868541 ], [ 5.531304179368406, 52.544917054585341 ], [ 5.531189672195263, 52.542221252582912 ], [ 5.526824332062283, 52.542291879877702 ], [ 5.526938577498214, 52.54498768868541 ] ] ] } },
{ "type": "Feature", "properties": { "id": 1070.0, "left": 629819.5269000001, "top": 5762516.2893000003, "right": 630119.5269000001, "bottom": 5762216.2893000003 }, "geometry": { "type": "Polygon", "coordinates": [ [ [ 5.526824332062283, 52.542291879877702 ], [ 5.531189672195263, 52.542221252582912 ], [ 5.531075182978756, 52.539525449160067 ], [ 5.526710104542012, 52.539596069650379 ], [ 5.526824332062283, 52.542291879877702 ] ] ] } },
{ "type": "Feature", "properties": { "id": 1071.0, "left": 629819.5269000001, "top": 5762216.2893000003, "right": 630119.5269000001, "bottom": 5761916.2893000003 }, "geometry": { "type": "Polygon", "coordinates": [ [ [ 5.526710104542012, 52.539596069650379 ], [ 5.531075182978756, 52.539525449160067 ], [ 5.53096071171515, 52.536829644316789 ], [ 5.526595894933674, 52.536900258003442 ], [ 5.526710104542012, 52.539596069650379 ] ] ] } },
{ "type": "Feature", "properties": { "id": 1072.0, "left": 629819.5269000001, "top": 5761916.2893000003, "right": 630119.5269000001, "bottom": 5761616.2893000012 }, "geometry": { "type": "Polygon", "coordinates": [ [ [ 5.526595894933674, 52.536900258003442 ], [ 5.53096071171515, 52.536829644316789 ], [ 5.530846258400712, 52.534133838053123 ], [ 5.526481703233546, 52.534204444936918 ], [ 5.526595894933674, 52.536900258003442 ] ] ] } },
{ "type": "Feature", "properties": { "id": 1073.0, "left": 629819.5269000001, "top": 5761616.2893000012, "right": 630119.5269000001, "bottom": 5761316.2893000003 }, "geometry": { "type": "Polygon", "coordinates": [ [ [ 5.526481703233546, 52.534204444936918 ], [ 5.530846258400712, 52.534133838053123 ], [ 5.530731823031706, 52.531438030369053 ], [ 5.526367529437901, 52.531508630450801 ], [ 5.526481703233546, 52.534204444936918 ] ] ] } },
{ "type": "Feature", "properties": { "id": 1074.0, "left": 629819.5269000001, "top": 5761316.2893000003, "right": 630119.5269000001, "bottom": 5761016.2893000003 }, "geometry": { "type": "Polygon", "coordinates": [ [ [ 5.526367529437901, 52.531508630450801 ], [ 5.530731823031706, 52.531438030369053 ], [ 5.530617405604406, 52.528742221264594 ], [ 5.526253373543021, 52.52881281454512 ], [ 5.526367529437901, 52.531508630450801 ] ] ] } },
{ "type": "Feature", "properties": { "id": 1075.0, "left": 629819.5269000001, "top": 5761016.2893000003, "right": 630119.5269000001, "bottom": 5760716.2893000003 }, "geometry": { "type": "Polygon", "coordinates": [ [ [ 5.526253373543021, 52.52881281454512 ], [ 5.530617405604406, 52.528742221264594 ], [ 5.530503006115077, 52.526046410739745 ], [ 5.526139235545179, 52.526116997219866 ], [ 5.526253373543021, 52.52881281454512 ] ] ] } },
{ "type": "Feature", "properties": { "id": 1076.0, "left": 629819.5269000001, "top": 5760716.2893000003, "right": 630119.5269000001, "bottom": 5760416.2893000003 }, "geometry": { "type": "Polygon", "coordinates": [ [ [ 5.526139235545179, 52.526116997219866 ], [ 5.530503006115077, 52.526046410739745 ], [ 5.530388624559993, 52.523350598794536 ], [ 5.526025115440656, 52.523421178475054 ], [ 5.526139235545179, 52.526116997219866 ] ] ] } },
{ "type": "Feature", "properties": { "id": 1077.0, "left": 629819.5269000001, "top": 5760416.2893000003, "right": 630119.5269000001, "bottom": 5760116.2893000003 }, "geometry": { "type": "Polygon", "coordinates": [ [ [ 5.526025115440656, 52.523421178475054 ], [ 5.530388624559993, 52.523350598794536 ], [ 5.530274260935423, 52.520654785428945 ], [ 5.525911013225733, 52.520725358310678 ], [ 5.526025115440656, 52.523421178475054 ] ] ] } },
{ "type": "Feature", "properties": { "id": 1101.0, "left": 630119.5269000001, "top": 5763416.2893000003, "right": 630419.5269000001, "bottom": 5763116.2893000003 }, "geometry": { "type": "Polygon", "coordinates": [ [ [ 5.531533247599539, 52.550308654328873 ], [ 5.535899355099266, 52.550237844835372 ], [ 5.535784550186197, 52.547542052496297 ], [ 5.531418704501919, 52.547612855167323 ], [ 5.531533247599539, 52.550308654328873 ] ] ] } },
{ "type": "Feature", "properties": { "id": 1102.0, "left": 630119.5269000001, "top": 5763116.2893000003, "right": 630419.5269000001, "bottom": 5762816.2893000003 }, "geometry": { "type": "Polygon", "coordinates": [ [ [ 5.531418704501919, 52.547612855167323 ], [ 5.535784550186197, 52.547542052496297 ], [ 5.535669763278226, 52.54484625873598 ], [ 5.531304179368406, 52.544917054585341 ], [ 5.531418704501919, 52.547612855167323 ] ] ] } },
{ "type": "Feature", "properties": { "id": 1103.0, "left": 630119.5269000001, "top": 5762816.2893000003, "right": 630419.5269000001, "bottom": 5762516.2893000003 }, "geometry": { "type": "Polygon", "coordinates": [ [ [ 5.531304179368406, 52.544917054585341 ], [ 5.535669763278226, 52.54484625873598 ], [ 5.535554994371609, 52.5421504635544 ], [ 5.531189672195263, 52.542221252582912 ], [ 5.531304179368406, 52.544917054585341 ] ] ] } },
{ "type": "Feature", "properties": { "id": 1104.0, "left": 630119.5269000001, "top": 5762516.2893000003, "right": 630419.5269000001, "bottom": 5762216.2893000003 }, "geometry": { "type": "Polygon", "coordinates": [ [ [ 5.531189672195263, 52.542221252582912 ], [ 5.535554994371609, 52.5421504635544 ], [ 5.535440243462602, 52.539454666951599 ], [ 5.531075182978756, 52.539525449160067 ], [ 5.531189672195263, 52.542221252582912 ] ] ] } },
{ "type": "Feature", "properties": { "id": 1105.0, "left": 630119.5269000001, "top": 5762216.2893000003, "right": 630419.5269000001, "bottom": 5761916.2893000003 }, "geometry": { "type": "Polygon", "coordinates": [ [ [ 5.531075182978756, 52.539525449160067 ], [ 5.535440243462602, 52.539454666951599 ], [ 5.535325510547459, 52.536758868927556 ], [ 5.53096071171515, 52.536829644316789 ], [ 5.531075182978756, 52.539525449160067 ] ] ] } },
{ "type": "Feature", "properties": { "id": 1106.0, "left": 630119.5269000001, "top": 5761916.2893000003, "right": 630419.5269000001, "bottom": 5761616.2893000012 }, "geometry": { "type": "Polygon", "coordinates": [ [ [ 5.53096071171515, 52.536829644316789 ], [ 5.535325510547459, 52.536758868927556 ], [ 5.535210795622442, 52.534063069482286 ], [ 5.530846258400712, 52.534133838053123 ], [ 5.53096071171515, 52.536829644316789 ] ] ] } },
{ "type": "Feature", "properties": { "id": 1107.0, "left": 630119.5269000001, "top": 5761616.2893000012, "right": 630419.5269000001, "bottom": 5761316.2893000003 }, "geometry": { "type": "Polygon", "coordinates": [ [ [ 5.530846258400712, 52.534133838053123 ], [ 5.535210795622442, 52.534063069482286 ], [ 5.535096098683807, 52.531367268615796 ], [ 5.530731823031706, 52.531438030369053 ], [ 5.530846258400712, 52.534133838053123 ] ] ] } },
{ "type": "Feature", "properties": { "id": 1108.0, "left": 630119.5269000001, "top": 5761316.2893000003, "right": 630419.5269000001, "bottom": 5761016.2893000003 }, "geometry": { "type": "Polygon", "coordinates": [ [ [ 5.530731823031706, 52.531438030369053 ], [ 5.535096098683807, 52.531367268615796 ], [ 5.534981419727818, 52.52867146632812 ], [ 5.530617405604406, 52.528742221264594 ], [ 5.530731823031706, 52.531438030369053 ] ] ] } },
{ "type": "Feature", "properties": { "id": 1109.0, "left": 630119.5269000001, "top": 5761016.2893000003, "right": 630419.5269000001, "bottom": 5760716.2893000003 }, "geometry": { "type": "Polygon", "coordinates": [ [ [ 5.530617405604406, 52.528742221264594 ], [ 5.534981419727818, 52.52867146632812 ], [ 5.534866758750733, 52.525975662619246 ], [ 5.530503006115077, 52.526046410739745 ], [ 5.530617405604406, 52.528742221264594 ] ] ] } },
{ "type": "Feature", "properties": { "id": 1110.0, "left": 630119.5269000001, "top": 5760716.2893000003, "right": 630419.5269000001, "bottom": 5760416.2893000003 }, "geometry": { "type": "Polygon", "coordinates": [ [ [ 5.530503006115077, 52.526046410739745 ], [ 5.534866758750733, 52.525975662619246 ], [ 5.534752115748813, 52.523279857489186 ], [ 5.530388624559993, 52.523350598794536 ], [ 5.530503006115077, 52.526046410739745 ] ] ] } },
{ "type": "Feature", "properties": { "id": 1111.0, "left": 630119.5269000001, "top": 5760416.2893000003, "right": 630419.5269000001, "bottom": 5760116.2893000003 }, "geometry": { "type": "Polygon", "coordinates": [ [ [ 5.530388624559993, 52.523350598794536 ], [ 5.534752115748813, 52.523279857489186 ], [ 5.534637490718325, 52.520584050937934 ], [ 5.530274260935423, 52.520654785428945 ], [ 5.530388624559993, 52.523350598794536 ] ] ] } },
{ "type": "Feature", "properties": { "id": 1135.0, "left": 630419.5269000001, "top": 5763416.2893000003, "right": 630719.5269000001, "bottom": 5763116.2893000003 }, "geometry": { "type": "Polygon", "coordinates": [ [ [ 5.535899355099266, 52.550237844835372 ], [ 5.540265444590149, 52.550166873562972 ], [ 5.540150377865377, 52.547471088061961 ], [ 5.535784550186197, 52.547542052496297 ], [ 5.535899355099266, 52.550237844835372 ] ] ] } },
{ "type": "Feature", "properties": { "id": 1136.0, "left": 630419.5269000001, "top": 5763116.2893000003, "right": 630719.5269000001, "bottom": 5762816.2893000003 }, "geometry": { "type": "Polygon", "coordinates": [ [ [ 5.535784550186197, 52.547542052496297 ], [ 5.540150377865377, 52.547471088061961 ], [ 5.540035329186694, 52.54477530113887 ], [ 5.535669763278226, 52.54484625873598 ], [ 5.535784550186197, 52.547542052496297 ] ] ] } },
{ "type": "Feature", "properties": { "id": 1137.0, "left": 630419.5269000001, "top": 5762816.2893000003, "right": 630719.5269000001, "bottom": 5762516.2893000003 }, "geometry": { "type": "Polygon", "coordinates": [ [ [ 5.535669763278226, 52.54484625873598 ], [ 5.540035329186694, 52.54477530113887 ], [ 5.539920298550346, 52.542079512793713 ], [ 5.535554994371609, 52.5421504635544 ], [ 5.535669763278226, 52.54484625873598 ] ] ] } },
{ "type": "Feature", "properties": { "id": 1138.0, "left": 630419.5269000001, "top": 5762516.2893000003, "right": 630719.5269000001, "bottom": 5762216.2893000003 }, "geometry": { "type": "Polygon", "coordinates": [ [ [ 5.535554994371609, 52.5421504635544 ], [ 5.539920298550346, 52.542079512793713 ], [ 5.539805285952579, 52.539383723026504 ], [ 5.535440243462602, 52.539454666951599 ], [ 5.535554994371609, 52.5421504635544 ] ] ] } },
{ "type": "Feature", "properties": { "id": 1139.0, "left": 630419.5269000001, "top": 5762216.2893000003, "right": 630719.5269000001, "bottom": 5761916.2893000003 }, "geometry": { "type": "Polygon", "coordinates": [ [ [ 5.535440243462602, 52.539454666951599 ], [ 5.539805285952579, 52.539383723026504 ], [ 5.539690291389644, 52.536687931837243 ], [ 5.535325510547459, 52.536758868927556 ], [ 5.535440243462602, 52.539454666951599 ] ] ] } },
{ "type": "Feature", "properties": { "id": 1140.0, "left": 630419.5269000001, "top": 5761916.2893000003, "right": 630719.5269000001, "bottom": 5761616.2893000012 }, "geometry": { "type": "Polygon", "coordinates": [ [ [ 5.535325510547459, 52.536758868927556 ], [ 5.539690291389644, 52.536687931837243 ], [ 5.539575314857789, 52.53399213922593 ], [ 5.535210795622442, 52.534063069482286 ], [ 5.535325510547459, 52.536758868927556 ] ] ] } },
{ "type": "Feature", "properties": { "id": 1141.0, "left": 630419.5269000001, "top": 5761616.2893000012, "right": 630719.5269000001, "bottom": 5761316.2893000003 }, "geometry": { "type": "Polygon", "coordinates": [ [ [ 5.535210795622442, 52.534063069482286 ], [ 5.539575314857789, 52.53399213922593 ], [ 5.539460356353267, 52.531296345192594 ], [ 5.535096098683807, 52.531367268615796 ], [ 5.535210795622442, 52.534063069482286 ] ] ] } },
{ "type": "Feature", "properties": { "id": 1142.0, "left": 630419.5269000001, "top": 5761316.2893000003, "right": 630719.5269000001, "bottom": 5761016.2893000003 }, "geometry": { "type": "Polygon", "coordinates": [ [ [ 5.535096098683807, 52.531367268615796 ], [ 5.539460356353267, 52.531296345192594 ], [ 5.539345415872326, 52.528600549737256 ], [ 5.534981419727818, 52.52867146632812 ], [ 5.535096098683807, 52.531367268615796 ] ] ] } },
{ "type": "Feature", "properties": { "id": 1143.0, "left": 630419.5269000001, "top": 5761016.2893000003, "right": 630719.5269000001, "bottom": 5760716.2893000003 }, "geometry": { "type": "Polygon", "coordinates": [ [ [ 5.534981419727818, 52.52867146632812 ], [ 5.539345415872326, 52.528600549737256 ], [ 5.539230493411221, 52.525904752859887 ], [ 5.534866758750733, 52.525975662619246 ], [ 5.534981419727818, 52.52867146632812 ] ] ] } },
{ "type": "Feature", "properties": { "id": 1144.0, "left": 630419.5269000001, "top": 5760716.2893000003, "right": 630719.5269000001, "bottom": 5760416.2893000003 }, "geometry": { "type": "Polygon", "coordinates": [ [ [ 5.534866758750733, 52.525975662619246 ], [ 5.539230493411221, 52.525904752859887 ], [ 5.539115588966204, 52.523208954560516 ], [ 5.534752115748813, 52.523279857489186 ], [ 5.534866758750733, 52.525975662619246 ] ] ] } },
{ "type": "Feature", "properties": { "id": 1145.0, "left": 630419.5269000001, "top": 5760416.2893000003, "right": 630719.5269000001, "bottom": 5760116.2893000003 }, "geometry": { "type": "Polygon", "coordinates": [ [ [ 5.534752115748813, 52.523279857489186 ], [ 5.539115588966204, 52.523208954560516 ], [ 5.539000702533532, 52.520513154839165 ], [ 5.534637490718325, 52.520584050937934 ], [ 5.534752115748813, 52.523279857489186 ] ] ] } },
{ "type": "Feature", "properties": { "id": 1169.0, "left": 630719.5269000001, "top": 5763416.2893000003, "right": 631019.5269000001, "bottom": 5763116.2893000003 }, "geometry": { "type": "Polygon", "coordinates": [ [ [ 5.540265444590149, 52.550166873562972 ], [ 5.544631516031188, 52.550095740513257 ], [ 5.544516187498468, 52.547399961865871 ], [ 5.540150377865377, 52.547471088061961 ], [ 5.540265444590149, 52.550166873562972 ] ] ] } },
{ "type": "Feature", "properties": { "id": 1170.0, "left": 630719.5269000001, "top": 5763116.2893000003, "right": 631019.5269000001, "bottom": 5762816.2893000003 }, "geometry": { "type": "Polygon", "coordinates": [ [ [ 5.540150377865377, 52.547471088061961 ], [ 5.544516187498468, 52.547399961865871 ], [ 5.544400877052825, 52.544704181795566 ], [ 5.540035329186694, 52.54477530113887 ], [ 5.540150377865377, 52.547471088061961 ] ] ] } },
{ "type": "Feature", "properties": { "id": 1171.0, "left": 630719.5269000001, "top": 5762816.2893000003, "right": 631019.5269000001, "bottom": 5762516.2893000003 }, "geometry": { "type": "Polygon", "coordinates": [ [ [ 5.540035329186694, 52.54477530113887 ], [ 5.544400877052825, 52.544704181795566 ], [ 5.544285584690498, 52.542008400302386 ], [ 5.539920298550346, 52.542079512793713 ], [ 5.540035329186694, 52.54477530113887 ] ] ] } },
{ "type": "Feature", "properties": { "id": 1172.0, "left": 630719.5269000001, "top": 5762516.2893000003, "right": 631019.5269000001, "bottom": 5762216.2893000003 }, "geometry": { "type": "Polygon", "coordinates": [ [ [ 5.539920298550346, 52.542079512793713 ], [ 5.544285584690498, 52.542008400302386 ], [ 5.544170310407726, 52.539312617386322 ], [ 5.539805285952579, 52.539383723026504 ], [ 5.539920298550346, 52.542079512793713 ] ] ] } },
{ "type": "Feature", "properties": { "id": 1173.0, "left": 630719.5269000001, "top": 5762216.2893000003, "right": 631019.5269000001, "bottom": 5761916.2893000003 }, "geometry": { "type": "Polygon", "coordinates": [ [ [ 5.539805285952579, 52.539383723026504 ], [ 5.544170310407726, 52.539312617386322 ], [ 5.544055054200749, 52.536616833047397 ], [ 5.539690291389644, 52.536687931837243 ], [ 5.539805285952579, 52.539383723026504 ] ] ] } },
{ "type": "Feature", "properties": { "id": 1174.0, "left": 630719.5269000001, "top": 5761916.2893000003, "right": 631019.5269000001, "bottom": 5761616.2893000012 }, "geometry": { "type": "Polygon", "coordinates": [ [ [ 5.539690291389644, 52.536687931837243 ], [ 5.544055054200749, 52.536616833047397 ], [ 5.543939816065807, 52.533921047285624 ], [ 5.539575314857789, 52.53399213922593 ], [ 5.539690291389644, 52.536687931837243 ] ] ] } },
{ "type": "Feature", "properties": { "id": 1175.0, "left": 630719.5269000001, "top": 5761616.2893000012, "right": 631019.5269000001, "bottom": 5761316.2893000003 }, "geometry": { "type": "Polygon", "coordinates": [ [ [ 5.539575314857789, 52.53399213922593 ], [ 5.543939816065807, 52.533921047285624 ], [ 5.543824595999142, 52.531225260100989 ], [ 5.539460356353267, 52.531296345192594 ], [ 5.539575314857789, 52.53399213922593 ] ] ] } },
{ "type": "Feature", "properties": { "id": 1176.0, "left": 630719.5269000001, "top": 5761316.2893000003, "right": 631019.5269000001, "bottom": 5761016.2893000003 }, "geometry": { "type": "Polygon", "coordinates": [ [ [ 5.539460356353267, 52.531296345192594 ], [ 5.543824595999142, 52.531225260100989 ], [ 5.543709393996999, 52.528529471493528 ], [ 5.539345415872326, 52.528600549737256 ], [ 5.539460356353267, 52.531296345192594 ] ] ] } },
{ "type": "Feature", "properties": { "id": 1177.0, "left": 630719.5269000001, "top": 5761016.2893000003, "right": 631019.5269000001, "bottom": 5760716.2893000003 }, "geometry": { "type": "Polygon", "coordinates": [ [ [ 5.539345415872326, 52.528600549737256 ], [ 5.543709393996999, 52.528529471493528 ], [ 5.54359421005562, 52.525833681463226 ], [ 5.539230493411221, 52.525904752859887 ], [ 5.539345415872326, 52.528600549737256 ] ] ] } },
{ "type": "Feature", "properties": { "id": 1178.0, "left": 630719.5269000001, "top": 5760716.2893000003, "right": 631019.5269000001, "bottom": 5760416.2893000003 }, "geometry": { "type": "Polygon", "coordinates": [ [ [ 5.539230493411221, 52.525904752859887 ], [ 5.54359421005562, 52.525833681463226 ], [ 5.543479044171252, 52.523137890010105 ], [ 5.539115588966204, 52.523208954560516 ], [ 5.539230493411221, 52.525904752859887 ] ] ] } },
{ "type": "Feature", "properties": { "id": 1179.0, "left": 630719.5269000001, "top": 5760416.2893000003, "right": 631019.5269000001, "bottom": 5760116.2893000003 }, "geometry": { "type": "Polygon", "coordinates": [ [ [ 5.539115588966204, 52.523208954560516 ], [ 5.543479044171252, 52.523137890010105 ], [ 5.543363896340139, 52.520442097134172 ], [ 5.539000702533532, 52.520513154839165 ], [ 5.539115588966204, 52.523208954560516 ] ] ] } },
{ "type": "Feature", "properties": { "id": 1203.0, "left": 631019.5269000001, "top": 5763416.2893000003, "right": 631319.5269000001, "bottom": 5763116.2893000003 }, "geometry": { "type": "Polygon", "coordinates": [ [ [ 5.544631516031188, 52.550095740513257 ], [ 5.548997569381386, 52.550024445687754 ], [ 5.548881979044481, 52.54732867390954 ], [ 5.544516187498468, 52.547399961865871 ], [ 5.544631516031188, 52.550095740513257 ] ] ] } },
{ "type": "Feature", "properties": { "id": 1204.0, "left": 631019.5269000001, "top": 5763116.2893000003, "right": 631319.5269000001, "bottom": 5762816.2893000003 }, "geometry": { "type": "Polygon", "coordinates": [ [ [ 5.544516187498468, 52.547399961865871 ], [ 5.548881979044481, 52.54732867390954 ], [ 5.548766406835641, 52.544632900707605 ], [ 5.544400877052825, 52.544704181795566 ], [ 5.544516187498468, 52.547399961865871 ] ] ] } },
{ "type": "Feature", "properties": { "id": 1205.0, "left": 631019.5269000001, "top": 5762816.2893000003, "right": 631319.5269000001, "bottom": 5762516.2893000003 }, "geometry": { "type": "Polygon", "coordinates": [ [ [ 5.544400877052825, 52.544704181795566 ], [ 5.548766406835641, 52.544632900707605 ], [ 5.548650852751098, 52.541937126081955 ], [ 5.544285584690498, 52.542008400302386 ], [ 5.544400877052825, 52.544704181795566 ] ] ] } },
{ "type": "Feature", "properties": { "id": 1206.0, "left": 631019.5269000001, "top": 5762516.2893000003, "right": 631319.5269000001, "bottom": 5762216.2893000003 }, "geometry": { "type": "Polygon", "coordinates": [ [ [ 5.544285584690498, 52.542008400302386 ], [ 5.548650852751098, 52.541937126081955 ], [ 5.54853531678708, 52.539241350032619 ], [ 5.544170310407726, 52.539312617386322 ], [ 5.544285584690498, 52.542008400302386 ] ] ] } },
{ "type": "Feature", "properties": { "id": 1207.0, "left": 631019.5269000001, "top": 5762216.2893000003, "right": 631319.5269000001, "bottom": 5761916.2893000003 }, "geometry": { "type": "Polygon", "coordinates": [ [ [ 5.544170310407726, 52.539312617386322 ], [ 5.54853531678708, 52.539241350032619 ], [ 5.548419798939818, 52.536545572559596 ], [ 5.544055054200749, 52.536616833047397 ], [ 5.544170310407726, 52.539312617386322 ] ] ] } },
{ "type": "Feature", "properties": { "id": 1208.0, "left": 631019.5269000001, "top": 5761916.2893000003, "right": 631319.5269000001, "bottom": 5761616.2893000012 }, "geometry": { "type": "Polygon", "coordinates": [ [ [ 5.544055054200749, 52.536616833047397 ], [ 5.548419798939818, 52.536545572559596 ], [ 5.548304299205547, 52.533849793662881 ], [ 5.543939816065807, 52.533921047285624 ], [ 5.544055054200749, 52.536616833047397 ] ] ] } },
{ "type": "Feature", "properties": { "id": 1209.0, "left": 631019.5269000001, "top": 5761616.2893000012, "right": 631319.5269000001, "bottom": 5761316.2893000003 }, "geometry": { "type": "Polygon", "coordinates": [ [ [ 5.543939816065807, 52.533921047285624 ], [ 5.548304299205547, 52.533849793662881 ], [ 5.548188817580498, 52.531154013342508 ], [ 5.543824595999142, 52.531225260100989 ], [ 5.543939816065807, 52.533921047285624 ] ] ] } },
{ "type": "Feature", "properties": { "id": 1210.0, "left": 631019.5269000001, "top": 5761316.2893000003, "right": 631319.5269000001, "bottom": 5761016.2893000003 }, "geometry": { "type": "Polygon", "coordinates": [ [ [ 5.543824595999142, 52.531225260100989 ], [ 5.548188817580498, 52.531154013342508 ], [ 5.548073354060907, 52.528458231598471 ], [ 5.543709393996999, 52.528529471493528 ], [ 5.543824595999142, 52.531225260100989 ] ] ] } },
{ "type": "Feature", "properties": { "id": 1211.0, "left": 631019.5269000001, "top": 5761016.2893000003, "right": 631319.5269000001, "bottom": 5760716.2893000003 }, "geometry": { "type": "Polygon", "coordinates": [ [ [ 5.543709393996999, 52.528529471493528 ], [ 5.548073354060907, 52.528458231598471 ], [ 5.54795790864301, 52.52576244843079 ], [ 5.54359421005562, 52.525833681463226 ], [ 5.543709393996999, 52.528529471493528 ] ] ] } },
{ "type": "Feature", "properties": { "id": 1212.0, "left": 631019.5269000001, "top": 5760716.2893000003, "right": 631319.5269000001, "bottom": 5760416.2893000003 }, "geometry": { "type": "Polygon", "coordinates": [ [ [ 5.54359421005562, 52.525833681463226 ], [ 5.54795790864301, 52.52576244843079 ], [ 5.547842481323044, 52.523066663839465 ], [ 5.543479044171252, 52.523137890010105 ], [ 5.54359421005562, 52.525833681463226 ] ] ] } },
{ "type": "Feature", "properties": { "id": 1213.0, "left": 631019.5269000001, "top": 5760416.2893000003, "right": 631319.5269000001, "bottom": 5760116.2893000003 }, "geometry": { "type": "Polygon", "coordinates": [ [ [ 5.543479044171252, 52.523137890010105 ], [ 5.547842481323044, 52.523066663839465 ], [ 5.547727072097244, 52.520370877824519 ], [ 5.543363896340139, 52.520442097134172 ], [ 5.543479044171252, 52.523137890010105 ] ] ] } },
{ "type": "Feature", "properties": { "id": 1237.0, "left": 631319.5269000001, "top": 5763416.2893000003, "right": 631619.5269000001, "bottom": 5763116.2893000003 }, "geometry": { "type": "Polygon", "coordinates": [ [ [ 5.548997569381386, 52.550024445687754 ], [ 5.553363604599746, 52.54995298908802 ], [ 5.553247752462428, 52.547257224194546 ], [ 5.548881979044481, 52.54732867390954 ], [ 5.548997569381386, 52.550024445687754 ] ] ] } },
{ "type": "Feature", "properties": { "id": 1238.0, "left": 631319.5269000001, "top": 5763116.2893000003, "right": 631619.5269000001, "bottom": 5762816.2893000003 }, "geometry": { "type": "Polygon", "coordinates": [ [ [ 5.548881979044481, 52.54732867390954 ], [ 5.553247752462428, 52.547257224194546 ], [ 5.553131918494162, 52.544561457876526 ], [ 5.548766406835641, 52.544632900707605 ], [ 5.548881979044481, 52.54732867390954 ] ] ] } },
{ "type": "Feature", "properties": { "id": 1239.0, "left": 631319.5269000001, "top": 5762816.2893000003, "right": 631619.5269000001, "bottom": 5762516.2893000003 }, "geometry": { "type": "Polygon", "coordinates": [ [ [ 5.548766406835641, 52.544632900707605 ], [ 5.553131918494162, 52.544561457876526 ], [ 5.553016102691172, 52.541865690133996 ], [ 5.548650852751098, 52.541937126081955 ], [ 5.548766406835641, 52.544632900707605 ] ] ] } },
{ "type": "Feature", "properties": { "id": 1240.0, "left": 631319.5269000001, "top": 5762516.2893000003, "right": 631619.5269000001, "bottom": 5762216.2893000003 }, "geometry": { "type": "Polygon", "coordinates": [ [ [ 5.548650852751098, 52.541937126081955 ], [ 5.553016102691172, 52.541865690133996 ], [ 5.552900305049675, 52.539169920966927 ], [ 5.54853531678708, 52.539241350032619 ], [ 5.548650852751098, 52.541937126081955 ] ] ] } },
{ "type": "Feature", "properties": { "id": 1241.0, "left": 631319.5269000001, "top": 5762216.2893000003, "right": 631619.5269000001, "bottom": 5761916.2893000003 }, "geometry": { "type": "Polygon", "coordinates": [ [ [ 5.54853531678708, 52.539241350032619 ], [ 5.552900305049675, 52.539169920966927 ], [ 5.552784525565898, 52.536474150375348 ], [ 5.548419798939818, 52.536545572559596 ], [ 5.54853531678708, 52.539241350032619 ] ] ] } },
{ "type": "Feature", "properties": { "id": 1242.0, "left": 631319.5269000001, "top": 5761916.2893000003, "right": 631619.5269000001, "bottom": 5761616.2893000012 }, "geometry": { "type": "Polygon", "coordinates": [ [ [ 5.548419798939818, 52.536545572559596 ], [ 5.552784525565898, 52.536474150375348 ], [ 5.552668764236063, 52.533778378359273 ], [ 5.548304299205547, 52.533849793662881 ], [ 5.548419798939818, 52.536545572559596 ] ] ] } },
{ "type": "Feature", "properties": { "id": 1243.0, "left": 631319.5269000001, "top": 5761616.2893000012, "right": 631619.5269000001, "bottom": 5761316.2893000003 }, "geometry": { "type": "Polygon", "coordinates": [ [ [ 5.548304299205547, 52.533849793662881 ], [ 5.552668764236063, 52.533778378359273 ], [ 5.552553021056396, 52.531082604918701 ], [ 5.548188817580498, 52.531154013342508 ], [ 5.548304299205547, 52.533849793662881 ] ] ] } },
{ "type": "Feature", "properties": { "id": 1244.0, "left": 631319.5269000001, "top": 5761316.2893000003, "right": 631619.5269000001, "bottom": 5761016.2893000003 }, "geometry": { "type": "Polygon", "coordinates": [ [ [ 5.548188817580498, 52.531154013342508 ], [ 5.552553021056396, 52.531082604918701 ], [ 5.552437296023123, 52.528386830053655 ], [ 5.548073354060907, 52.528458231598471 ], [ 5.548188817580498, 52.531154013342508 ] ] ] } },
{ "type": "Feature", "properties": { "id": 1245.0, "left": 631319.5269000001, "top": 5761016.2893000003, "right": 631619.5269000001, "bottom": 5760716.2893000003 }, "geometry": { "type": "Polygon", "coordinates": [ [ [ 5.548073354060907, 52.528458231598471 ], [ 5.552437296023123, 52.528386830053655 ], [ 5.552321589132469, 52.525691053764142 ], [ 5.54795790864301, 52.52576244843079 ], [ 5.548073354060907, 52.528458231598471 ] ] ] } },
{ "type": "Feature", "properties": { "id": 1246.0, "left": 631319.5269000001, "top": 5760716.2893000003, "right": 631619.5269000001, "bottom": 5760416.2893000003 }, "geometry": { "type": "Polygon", "coordinates": [ [ [ 5.54795790864301, 52.52576244843079 ], [ 5.552321589132469, 52.525691053764142 ], [ 5.552205900380666, 52.522995276050175 ], [ 5.547842481323044, 52.523066663839465 ], [ 5.54795790864301, 52.52576244843079 ] ] ] } },
{ "type": "Feature", "properties": { "id": 1247.0, "left": 631319.5269000001, "top": 5760416.2893000003, "right": 631619.5269000001, "bottom": 5760116.2893000003 }, "geometry": { "type": "Polygon", "coordinates": [ [ [ 5.547842481323044, 52.523066663839465 ], [ 5.552205900380666, 52.522995276050175 ], [ 5.552090229763941, 52.52029949691174 ], [ 5.547727072097244, 52.520370877824519 ], [ 5.547842481323044, 52.523066663839465 ] ] ] } },
{ "type": "Feature", "properties": { "id": 1271.0, "left": 631619.5269000001, "top": 5763416.2893000003, "right": 631919.5269000001, "bottom": 5763116.2893000003 }, "geometry": { "type": "Polygon", "coordinates": [ [ [ 5.553363604599746, 52.54995298908802 ], [ 5.557729621645274, 52.54988137071561 ], [ 5.557613507711323, 52.547185612722437 ], [ 5.553247752462428, 52.547257224194546 ], [ 5.553363604599746, 52.54995298908802 ] ] ] } },
{ "type": "Feature", "properties": { "id": 1272.0, "left": 631619.5269000001, "top": 5763116.2893000003, "right": 631919.5269000001, "bottom": 5762816.2893000003 }, "geometry": { "type": "Polygon", "coordinates": [ [ [ 5.553247752462428, 52.547257224194546 ], [ 5.557613507711323, 52.547185612722437 ], [ 5.557497411987411, 52.544489853303915 ], [ 5.553131918494162, 52.544561457876526 ], [ 5.553247752462428, 52.547257224194546 ] ] ] } },
{ "type": "Feature", "properties": { "id": 1273.0, "left": 631619.5269000001, "top": 5762816.2893000003, "right": 631919.5269000001, "bottom": 5762516.2893000003 }, "geometry": { "type": "Polygon", "coordinates": [ [ [ 5.553131918494162, 52.544561457876526 ], [ 5.557497411987411, 52.544489853303915 ], [ 5.55738133446975, 52.541794092460023 ], [ 5.553016102691172, 52.541865690133996 ], [ 5.553131918494162, 52.544561457876526 ] ] ] } },
{ "type": "Feature", "properties": { "id": 1274.0, "left": 631619.5269000001, "top": 5762516.2893000003, "right": 631919.5269000001, "bottom": 5762216.2893000003 }, "geometry": { "type": "Polygon", "coordinates": [ [ [ 5.553016102691172, 52.541865690133996 ], [ 5.55738133446975, 52.541794092460023 ], [ 5.557265275154554, 52.539098330190789 ], [ 5.552900305049675, 52.539169920966927 ], [ 5.553016102691172, 52.541865690133996 ] ] ] } },
{ "type": "Feature", "properties": { "id": 1275.0, "left": 631619.5269000001, "top": 5762216.2893000003, "right": 631919.5269000001, "bottom": 5761916.2893000003 }, "geometry": { "type": "Polygon", "coordinates": [ [ [ 5.552900305049675, 52.539169920966927 ], [ 5.557265275154554, 52.539098330190789 ], [ 5.557149234038036, 52.536402566496228 ], [ 5.552784525565898, 52.536474150375348 ], [ 5.552900305049675, 52.539169920966927 ] ] ] } },
{ "type": "Feature", "properties": { "id": 1276.0, "left": 631619.5269000001, "top": 5761916.2893000003, "right": 631919.5269000001, "bottom": 5761616.2893000012 }, "geometry": { "type": "Polygon", "coordinates": [ [ [ 5.552784525565898, 52.536474150375348 ], [ 5.557149234038036, 52.536402566496228 ], [ 5.557033211116413, 52.533706801376347 ], [ 5.552668764236063, 52.533778378359273 ], [ 5.552784525565898, 52.536474150375348 ] ] ] } },
{ "type": "Feature", "properties": { "id": 1277.0, "left": 631619.5269000001, "top": 5761616.2893000012, "right": 631919.5269000001, "bottom": 5761316.2893000003 }, "geometry": { "type": "Polygon", "coordinates": [ [ [ 5.552668764236063, 52.533778378359273 ], [ 5.557033211116413, 52.533706801376347 ], [ 5.5569172063859, 52.531011034831131 ], [ 5.552553021056396, 52.531082604918701 ], [ 5.552668764236063, 52.533778378359273 ] ] ] } },
{ "type": "Feature", "properties": { "id": 1278.0, "left": 631619.5269000001, "top": 5761316.2893000003, "right": 631919.5269000001, "bottom": 5761016.2893000003 }, "geometry": { "type": "Polygon", "coordinates": [ [ [ 5.552553021056396, 52.531082604918701 ], [ 5.5569172063859, 52.531011034831131 ], [ 5.556801219842717, 52.528315266860623 ], [ 5.552437296023123, 52.528386830053655 ], [ 5.552553021056396, 52.531082604918701 ] ] ] } },
{ "type": "Feature", "properties": { "id": 1279.0, "left": 631619.5269000001, "top": 5761016.2893000003, "right": 631919.5269000001, "bottom": 5760716.2893000003 }, "geometry": { "type": "Polygon", "coordinates": [ [ [ 5.552437296023123, 52.528386830053655 ], [ 5.556801219842717, 52.528315266860623 ], [ 5.55668525148308, 52.525619497464838 ], [ 5.552321589132469, 52.525691053764142 ], [ 5.552437296023123, 52.528386830053655 ] ] ] } },
{ "type": "Feature", "properties": { "id": 1280.0, "left": 631619.5269000001, "top": 5760716.2893000003, "right": 631919.5269000001, "bottom": 5760416.2893000003 }, "geometry": { "type": "Polygon", "coordinates": [ [ [ 5.552321589132469, 52.525691053764142 ], [ 5.55668525148308, 52.525619497464838 ], [ 5.556569301303211, 52.522923726643754 ], [ 5.552205900380666, 52.522995276050175 ], [ 5.552321589132469, 52.525691053764142 ] ] ] } },
{ "type": "Feature", "properties": { "id": 1281.0, "left": 631619.5269000001, "top": 5760416.2893000003, "right": 631919.5269000001, "bottom": 5760116.2893000003 }, "geometry": { "type": "Polygon", "coordinates": [ [ [ 5.552205900380666, 52.522995276050175 ], [ 5.556569301303211, 52.522923726643754 ], [ 5.556453369299329, 52.520227954397392 ], [ 5.552090229763941, 52.52029949691174 ], [ 5.552205900380666, 52.522995276050175 ] ] ] } },
{ "type": "Feature", "properties": { "id": 1305.0, "left": 631919.5269000001, "top": 5763416.2893000003, "right": 632219.5269000001, "bottom": 5763116.2893000003 }, "geometry": { "type": "Polygon", "coordinates": [ [ [ 5.557729621645274, 52.54988137071561 ], [ 5.562095620476973, 52.549809590572075 ], [ 5.561979244750179, 52.54711383949477 ], [ 5.557613507711323, 52.547185612722437 ], [ 5.557729621645274, 52.54988137071561 ] ] ] } },
{ "type": "Feature", "properties": { "id": 1306.0, "left": 631919.5269000001, "top": 5763116.2893000003, "right": 632219.5269000001, "bottom": 5762816.2893000003 }, "geometry": { "type": "Polygon", "coordinates": [ [ [ 5.557613507711323, 52.547185612722437 ], [ 5.561979244750179, 52.54711383949477 ], [ 5.561862887274407, 52.544418086991278 ], [ 5.557497411987411, 52.544489853303915 ], [ 5.557613507711323, 52.547185612722437 ] ] ] } },
{ "type": "Feature", "properties": { "id": 1307.0, "left": 631919.5269000001, "top": 5762816.2893000003, "right": 632219.5269000001, "bottom": 5762516.2893000003 }, "geometry": { "type": "Polygon", "coordinates": [ [ [ 5.557497411987411, 52.544489853303915 ], [ 5.561862887274407, 52.544418086991278 ], [ 5.561746548045863, 52.541722333061635 ], [ 5.55738133446975, 52.541794092460023 ], [ 5.557497411987411, 52.544489853303915 ] ] ] } },
{ "type": "Feature", "properties": { "id": 1308.0, "left": 631919.5269000001, "top": 5762516.2893000003, "right": 632219.5269000001, "bottom": 5762216.2893000003 }, "geometry": { "type": "Polygon", "coordinates": [ [ [ 5.55738133446975, 52.541794092460023 ], [ 5.561746548045863, 52.541722333061635 ], [ 5.561630227060752, 52.539026577705791 ], [ 5.557265275154554, 52.539098330190789 ], [ 5.55738133446975, 52.541794092460023 ] ] ] } },
{ "type": "Feature", "properties": { "id": 1309.0, "left": 631919.5269000001, "top": 5762216.2893000003, "right": 632219.5269000001, "bottom": 5761916.2893000003 }, "geometry": { "type": "Polygon", "coordinates": [ [ [ 5.557265275154554, 52.539098330190789 ], [ 5.561630227060752, 52.539026577705791 ], [ 5.561513924315279, 52.536330820923787 ], [ 5.557149234038036, 52.536402566496228 ], [ 5.557265275154554, 52.539098330190789 ] ] ] } },
{ "type": "Feature", "properties": { "id": 1310.0, "left": 631919.5269000001, "top": 5761916.2893000003, "right": 632219.5269000001, "bottom": 5761616.2893000012 }, "geometry": { "type": "Polygon", "coordinates": [ [ [ 5.557149234038036, 52.536402566496228 ], [ 5.561513924315279, 52.536330820923787 ], [ 5.561397639805651, 52.533635062715639 ], [ 5.557033211116413, 52.533706801376347 ], [ 5.557149234038036, 52.536402566496228 ] ] ] } },
{ "type": "Feature", "properties": { "id": 1311.0, "left": 631919.5269000001, "top": 5761616.2893000012, "right": 632219.5269000001, "bottom": 5761316.2893000003 }, "geometry": { "type": "Polygon", "coordinates": [ [ [ 5.557033211116413, 52.533706801376347 ], [ 5.561397639805651, 52.533635062715639 ], [ 5.561281373528075, 52.530939303081361 ], [ 5.5569172063859, 52.531011034831131 ], [ 5.557033211116413, 52.533706801376347 ] ] ] } },
{ "type": "Feature", "properties": { "id": 1312.0, "left": 631919.5269000001, "top": 5761316.2893000003, "right": 632219.5269000001, "bottom": 5761016.2893000003 }, "geometry": { "type": "Polygon", "coordinates": [ [ [ 5.5569172063859, 52.531011034831131 ], [ 5.561281373528075, 52.530939303081361 ], [ 5.561165125478764, 52.528243542020938 ], [ 5.556801219842717, 52.528315266860623 ], [ 5.5569172063859, 52.531011034831131 ] ] ] } },
{ "type": "Feature", "properties": { "id": 1313.0, "left": 631919.5269000001, "top": 5761016.2893000003, "right": 632219.5269000001, "bottom": 5760716.2893000003 }, "geometry": { "type": "Polygon", "coordinates": [ [ [ 5.556801219842717, 52.528315266860623 ], [ 5.561165125478764, 52.528243542020938 ], [ 5.561048895653924, 52.525547779534413 ], [ 5.55668525148308, 52.525619497464838 ], [ 5.556801219842717, 52.528315266860623 ] ] ] } },
{ "type": "Feature", "properties": { "id": 1314.0, "left": 631919.5269000001, "top": 5760716.2893000003, "right": 632219.5269000001, "bottom": 5760416.2893000003 }, "geometry": { "type": "Polygon", "coordinates": [ [ [ 5.55668525148308, 52.525619497464838 ], [ 5.561048895653924, 52.525547779534413 ], [ 5.560932684049767, 52.522852015621773 ], [ 5.556569301303211, 52.522923726643754 ], [ 5.55668525148308, 52.525619497464838 ] ] ] } },
{ "type": "Feature", "properties": { "id": 1315.0, "left": 631919.5269000001, "top": 5760416.2893000003, "right": 632219.5269000001, "bottom": 5760116.2893000003 }, "geometry": { "type": "Polygon", "coordinates": [ [ [ 5.556569301303211, 52.522923726643754 ], [ 5.560932684049767, 52.522852015621773 ], [ 5.560816490662509, 52.520156250283023 ], [ 5.556453369299329, 52.520227954397392 ], [ 5.556569301303211, 52.522923726643754 ] ] ] } },
{ "type": "Feature", "properties": { "id": 1339.0, "left": 632219.5269000001, "top": 5763416.2893000003, "right": 632519.5269000001, "bottom": 5763116.2893000003 }, "geometry": { "type": "Polygon", "coordinates": [ [ [ 5.562095620476973, 52.549809590572075 ], [ 5.566461601053853, 52.549737648658976 ], [ 5.566344963538011, 52.547041904513115 ], [ 5.561979244750179, 52.54711383949477 ], [ 5.562095620476973, 52.549809590572075 ] ] ] } },
{ "type": "Feature", "properties": { "id": 1340.0, "left": 632219.5269000001, "top": 5763116.2893000003, "right": 632519.5269000001, "bottom": 5762816.2893000003 }, "geometry": { "type": "Polygon", "coordinates": [ [ [ 5.561979244750179, 52.54711383949477 ], [ 5.566344963538011, 52.547041904513115 ], [ 5.566228344314178, 52.544346158940229 ], [ 5.561862887274407, 52.544418086991278 ], [ 5.561979244750179, 52.54711383949477 ] ] ] } },
{ "type": "Feature", "properties": { "id": 1341.0, "left": 632219.5269000001, "top": 5762816.2893000003, "right": 632519.5269000001, "bottom": 5762516.2893000003 }, "geometry": { "type": "Polygon", "coordinates": [ [ [ 5.561862887274407, 52.544418086991278 ], [ 5.566228344314178, 52.544346158940229 ], [ 5.566111743378547, 52.541650411940353 ], [ 5.561746548045863, 52.541722333061635 ], [ 5.561862887274407, 52.544418086991278 ] ] ] } },
{ "type": "Feature", "properties": { "id": 1342.0, "left": 632219.5269000001, "top": 5762516.2893000003, "right": 632519.5269000001, "bottom": 5762216.2893000003 }, "geometry": { "type": "Polygon", "coordinates": [ [ [ 5.561746548045863, 52.541722333061635 ], [ 5.566111743378547, 52.541650411940353 ], [ 5.565995160727314, 52.538954663513479 ], [ 5.561630227060752, 52.539026577705791 ], [ 5.561746548045863, 52.541722333061635 ] ] ] } },
{ "type": "Feature", "properties": { "id": 1343.0, "left": 632219.5269000001, "top": 5762216.2893000003, "right": 632519.5269000001, "bottom": 5761916.2893000003 }, "geometry": { "type": "Polygon", "coordinates": [ [ [ 5.561630227060752, 52.539026577705791 ], [ 5.565995160727314, 52.538954663513479 ], [ 5.565878596356678, 52.536258913659594 ], [ 5.561513924315279, 52.536330820923787 ], [ 5.561630227060752, 52.539026577705791 ] ] ] } },
{ "type": "Feature", "properties": { "id": 1344.0, "left": 632219.5269000001, "top": 5761916.2893000003, "right": 632519.5269000001, "bottom": 5761616.2893000012 }, "geometry": { "type": "Polygon", "coordinates": [ [ [ 5.561513924315279, 52.536330820923787 ], [ 5.565878596356678, 52.536258913659594 ], [ 5.565762050262837, 52.533563162378748 ], [ 5.561397639805651, 52.533635062715639 ], [ 5.561513924315279, 52.536330820923787 ] ] ] } },
{ "type": "Feature", "properties": { "id": 1345.0, "left": 632219.5269000001, "top": 5761616.2893000012, "right": 632519.5269000001, "bottom": 5761316.2893000003 }, "geometry": { "type": "Polygon", "coordinates": [ [ [ 5.561397639805651, 52.533635062715639 ], [ 5.565762050262837, 52.533563162378748 ], [ 5.56564552244199, 52.530867409670925 ], [ 5.561281373528075, 52.530939303081361 ], [ 5.561397639805651, 52.533635062715639 ] ] ] } },
{ "type": "Feature", "properties": { "id": 1346.0, "left": 632219.5269000001, "top": 5761316.2893000003, "right": 632519.5269000001, "bottom": 5761016.2893000003 }, "geometry": { "type": "Polygon", "coordinates": [ [ [ 5.561281373528075, 52.530939303081361 ], [ 5.56564552244199, 52.530867409670925 ], [ 5.565529012890338, 52.528171655536156 ], [ 5.561165125478764, 52.528243542020938 ], [ 5.561281373528075, 52.530939303081361 ] ] ] } },
{ "type": "Feature", "properties": { "id": 1347.0, "left": 632219.5269000001, "top": 5761016.2893000003, "right": 632519.5269000001, "bottom": 5760716.2893000003 }, "geometry": { "type": "Polygon", "coordinates": [ [ [ 5.561165125478764, 52.528243542020938 ], [ 5.565529012890338, 52.528171655536156 ], [ 5.565412521604084, 52.525475899974445 ], [ 5.561048895653924, 52.525547779534413 ], [ 5.561165125478764, 52.528243542020938 ] ] ] } },
{ "type": "Feature", "properties": { "id": 1348.0, "left": 632219.5269000001, "top": 5760716.2893000003, "right": 632519.5269000001, "bottom": 5760416.2893000003 }, "geometry": { "type": "Polygon", "coordinates": [ [ [ 5.561048895653924, 52.525547779534413 ], [ 5.565412521604084, 52.525475899974445 ], [ 5.565296048579429, 52.522780142985788 ], [ 5.560932684049767, 52.522852015621773 ], [ 5.561048895653924, 52.525547779534413 ] ] ] } },
{ "type": "Feature", "properties": { "id": 1349.0, "left": 632219.5269000001, "top": 5760416.2893000003, "right": 632519.5269000001, "bottom": 5760116.2893000003 }, "geometry": { "type": "Polygon", "coordinates": [ [ [ 5.560932684049767, 52.522852015621773 ], [ 5.565296048579429, 52.522780142985788 ], [ 5.565179593812577, 52.520084384570197 ], [ 5.560816490662509, 52.520156250283023 ], [ 5.560932684049767, 52.522852015621773 ] ] ] } },
{ "type": "Feature", "properties": { "id": 1373.0, "left": 632519.5269000001, "top": 5763416.2893000003, "right": 632819.5269000001, "bottom": 5763116.2893000003 }, "geometry": { "type": "Polygon", "coordinates": [ [ [ 5.566461601053853, 52.549737648658976 ], [ 5.570827563334919, 52.549665544977884 ], [ 5.570710664033837, 52.546969807779014 ], [ 5.566344963538011, 52.547041904513115 ], [ 5.566461601053853, 52.549737648658976 ] ] ] } },
{ "type": "Feature", "properties": { "id": 1374.0, "left": 632519.5269000001, "top": 5763116.2893000003, "right": 632819.5269000001, "bottom": 5762816.2893000003 }, "geometry": { "type": "Polygon", "coordinates": [ [ [ 5.566344963538011, 52.547041904513115 ], [ 5.570710664033837, 52.546969807779014 ], [ 5.570593783065744, 52.544274069152308 ], [ 5.566228344314178, 52.544346158940229 ], [ 5.566344963538011, 52.547041904513115 ] ] ] } },
{ "type": "Feature", "properties": { "id": 1375.0, "left": 632519.5269000001, "top": 5762816.2893000003, "right": 632819.5269000001, "bottom": 5762516.2893000003 }, "geometry": { "type": "Polygon", "coordinates": [ [ [ 5.566228344314178, 52.544346158940229 ], [ 5.570593783065744, 52.544274069152308 ], [ 5.57047692042683, 52.541578329097767 ], [ 5.566111743378547, 52.541650411940353 ], [ 5.566228344314178, 52.544346158940229 ] ] ] } },
{ "type": "Feature", "properties": { "id": 1376.0, "left": 632519.5269000001, "top": 5762516.2893000003, "right": 632819.5269000001, "bottom": 5762216.2893000003 }, "geometry": { "type": "Polygon", "coordinates": [ [ [ 5.566111743378547, 52.541650411940353 ], [ 5.57047692042683, 52.541578329097767 ], [ 5.570360076113279, 52.538882587615397 ], [ 5.565995160727314, 52.538954663513479 ], [ 5.566111743378547, 52.541650411940353 ] ] ] } },
{ "type": "Feature", "properties": { "id": 1377.0, "left": 632519.5269000001, "top": 5762216.2893000003, "right": 632819.5269000001, "bottom": 5761916.2893000003 }, "geometry": { "type": "Polygon", "coordinates": [ [ [ 5.565995160727314, 52.538954663513479 ], [ 5.570360076113279, 52.538882587615397 ], [ 5.570243250121282, 52.536186844705206 ], [ 5.565878596356678, 52.536258913659594 ], [ 5.565995160727314, 52.538954663513479 ] ] ] } },
{ "type": "Feature", "properties": { "id": 1378.0, "left": 632519.5269000001, "top": 5761916.2893000003, "right": 632819.5269000001, "bottom": 5761616.2893000012 }, "geometry": { "type": "Polygon", "coordinates": [ [ [ 5.565878596356678, 52.536258913659594 ], [ 5.570243250121282, 52.536186844705206 ], [ 5.570126442447028, 52.533491100367208 ], [ 5.565762050262837, 52.533563162378748 ], [ 5.565878596356678, 52.536258913659594 ] ] ] } },
{ "type": "Feature", "properties": { "id": 1379.0, "left": 632519.5269000001, "top": 5761616.2893000012, "right": 632819.5269000001, "bottom": 5761316.2893000003 }, "geometry": { "type": "Polygon", "coordinates": [ [ [ 5.565762050262837, 52.533563162378748 ], [ 5.570126442447028, 52.533491100367208 ], [ 5.570009653086708, 52.530795354601395 ], [ 5.56564552244199, 52.530867409670925 ], [ 5.565762050262837, 52.533563162378748 ] ] ] } },
{ "type": "Feature", "properties": { "id": 1380.0, "left": 632519.5269000001, "top": 5761316.2893000003, "right": 632819.5269000001, "bottom": 5761016.2893000003 }, "geometry": { "type": "Polygon", "coordinates": [ [ [ 5.56564552244199, 52.530867409670925 ], [ 5.570009653086708, 52.530795354601395 ], [ 5.569892882036516, 52.528099607407832 ], [ 5.565529012890338, 52.528171655536156 ], [ 5.56564552244199, 52.530867409670925 ] ] ] } },
{ "type": "Feature", "properties": { "id": 1381.0, "left": 632519.5269000001, "top": 5761016.2893000003, "right": 632819.5269000001, "bottom": 5760716.2893000003 }, "geometry": { "type": "Polygon", "coordinates": [ [ [ 5.565529012890338, 52.528171655536156 ], [ 5.569892882036516, 52.528099607407832 ], [ 5.569776129292643, 52.525403858786476 ], [ 5.565412521604084, 52.525475899974445 ], [ 5.565529012890338, 52.528171655536156 ] ] ] } },
{ "type": "Feature", "properties": { "id": 1382.0, "left": 632519.5269000001, "top": 5760716.2893000003, "right": 632819.5269000001, "bottom": 5760416.2893000003 }, "geometry": { "type": "Polygon", "coordinates": [ [ [ 5.565412521604084, 52.525475899974445 ], [ 5.569776129292643, 52.525403858786476 ], [ 5.569659394851285, 52.522708108737355 ], [ 5.565296048579429, 52.522780142985788 ], [ 5.565412521604084, 52.525475899974445 ] ] ] } },
{ "type": "Feature", "properties": { "id": 1383.0, "left": 632519.5269000001, "top": 5760416.2893000003, "right": 632819.5269000001, "bottom": 5760116.2893000003 }, "geometry": { "type": "Polygon", "coordinates": [ [ [ 5.565296048579429, 52.522780142985788 ], [ 5.569659394851285, 52.522708108737355 ], [ 5.569542678708637, 52.520012357260484 ], [ 5.565179593812577, 52.520084384570197 ], [ 5.565296048579429, 52.522780142985788 ] ] ] } }
]
}
