{
"type": "FeatureCollection",
"name": "Orchards",
"crs": { "type": "name", "properties": { "name": "urn:ogc:def:crs:OGC:1.3:CRS84" } },
"features": [
{ "type": "Feature", "properties": { "id": 1.0, "left": null, "top": null, "right": null, "bottom": null, "crop": "potato", "stress": "biotic", "country": "NL" }, "geometry": { "type": "Polygon", "coordinates": [ [ [ 5.537914967999865, 52.540139547684475 ], [ 5.53731767605675, 52.546827114248302 ], [ 5.541092084834951, 52.54682006846253 ], [ 5.541569361797873, 52.540103111237507 ], [ 5.537914967999865, 52.540139547684475 ] ] ] } },
{ "type": "Feature", "properties": { "id": 2.0, "left": null, "top": null, "right": null, "bottom": null, "crop": "Pistachio", "stress": "abiotic", "country": "ES" }, "geometry": { "type": "Polygon", "coordinates": [ [ [ -3.9491385441957, 39.03182673261842 ], [ -3.948229213862865, 39.032434988240269 ], [ -3.947749289520536, 39.031964081119646 ], [ -3.948663671688553, 39.031406836973559 ], [ -3.9491385441957, 39.03182673261842 ] ] ] } },
{ "type": "Feature", "properties": { "id": 3.0, "left": null, "top": null, "right": null, "bottom": null, "crop": "Pistachio", "stress": "abiotic", "country": "ES" }, "geometry": { "type": "Polygon", "coordinates": [ [ [ -3.947309779859666, 39.031634444268256 ], [ -3.946786914918286, 39.031200812497197 ], [ -3.947852852141776, 39.030451270763784 ], [ -3.948406028094249, 39.030916301518666 ], [ -3.947309779859666, 39.031634444268256 ] ] ] } },
{ "type": "Feature", "properties": { "id": 4.0, "left": null, "top": null, "right": null, "bottom": null, "crop": "Pistachio", "stress": "rainfed", "country": "ES" }, "geometry": { "type": "Polygon", "coordinates": [ [ [ -3.948408554011841, 39.030918263667289 ], [ -3.94788316315287, 39.030470892376442 ], [ -3.948226687945274, 39.030239356999864 ], [ -3.947585104877108, 39.02970172108131 ], [ -3.947822541130682, 39.029556519438408 ], [ -3.948933944870813, 39.030553303090173 ], [ -3.948408554011841, 39.030918263667289 ] ] ] } },
{ "type": "Feature", "properties": { "id": 5.0, "left": null, "top": null, "right": null, "bottom": null, "crop": "Olive", "stress": "rainfed", "country": "ES" }, "geometry": { "type": "Polygon", "coordinates": [ [ [ -3.946438338290701, 39.030992825273785 ], [ -3.944872269384153, 39.032232890985362 ], [ -3.943528481225631, 39.03117334252164 ], [ -3.945023824439624, 39.029956804326261 ], [ -3.946438338290701, 39.030992825273785 ] ] ] } },
{ "type": "Feature", "properties": { "id": 6.0, "left": null, "top": null, "right": null, "bottom": null, "crop": "Olive", "stress": "rainfed", "country": "ES" }, "geometry": { "type": "Polygon", "coordinates": [ [ [ -3.945013720769261, 39.03429700274615 ], [ -3.943629517929279, 39.033229636891271 ], [ -3.945215794176556, 39.032013134091123 ], [ -3.946620204357267, 39.033088366673034 ], [ -3.945013720769261, 39.03429700274615 ] ] ] } },
{ "type": "Feature", "properties": { "id": 7.0, "left": null, "top": null, "right": null, "bottom": null, "crop": "Pistachio", "stress": "rainfed", "country": "ES" }, "geometry": { "type": "Polygon", "coordinates": [ [ [ -3.941952308648716, 39.029729191628853 ], [ -3.940648935171653, 39.02877164052888 ], [ -3.940669142512383, 39.02877164052888 ], [ -3.939204110309484, 39.029839073712225 ], [ -3.940497380116182, 39.030867247785942 ], [ -3.941952308648716, 39.029729191628853 ] ] ] } },
{ "type": "Feature", "properties": { "id": 8.0, "left": null, "top": null, "right": null, "bottom": null, "crop": "Pistachio", "stress": "rainfed", "country": "ES" }, "geometry": { "type": "Polygon", "coordinates": [ [ [ -3.942215004078202, 39.029791981411698 ], [ -3.940709557193844, 39.028677454474064 ], [ -3.941457228800839, 39.028080939878876 ], [ -3.942124071044919, 39.028606814850562 ], [ -3.941851271945068, 39.028795187022993 ], [ -3.942689876585349, 39.029493729446379 ], [ -3.942689876585349, 39.029493729446379 ], [ -3.942215004078202, 39.029791981411698 ] ] ] } },
{ "type": "Feature", "properties": { "id": 9.0, "left": null, "top": null, "right": null, "bottom": null, "crop": "Olive", "stress": "rainfed", "country": "ES" }, "geometry": { "type": "Polygon", "coordinates": [ [ [ -3.938658512109783, 39.03684762791373 ], [ -3.937284412940166, 39.035866629129075 ], [ -3.93798156619534, 39.035285871430851 ], [ -3.939375872705686, 39.036282574276811 ], [ -3.938658512109783, 39.03684762791373 ] ] ] } },
{ "type": "Feature", "properties": { "id": 10.0, "left": null, "top": null, "right": null, "bottom": null, "crop": "alfalfa", "stress": "biotic", "country": "IT" }, "geometry": { "type": "Polygon", "coordinates": [ [ [ 10.86228997540324, 45.011261354548203 ], [ 10.863906562661612, 45.013097068284985 ], [ 10.864825996664811, 45.012539931813492 ], [ 10.863249824087896, 45.010839917798251 ], [ 10.862512256151263, 45.010739915402368 ], [ 10.862310182743968, 45.011254211578269 ], [ 10.86228997540324, 45.011261354548203 ] ] ] } },
{ "type": "Feature", "properties": { "id": 11.0, "left": null, "top": null, "right": null, "bottom": null, "crop": "alfalfa", "stress": "biotic", "country": "IT" }, "geometry": { "type": "Polygon", "coordinates": [ [ [ 10.918554340863787, 44.56670668434063 ], [ 10.92194917410637, 44.565238233495513 ], [ 10.920332586847998, 44.56258916959392 ], [ 10.916998375627603, 44.562963501159281 ], [ 10.917463144464387, 44.564676757199422 ], [ 10.917988535323357, 44.564719947876142 ], [ 10.918554340863787, 44.56670668434063 ] ] ] } },
{ "type": "Feature", "properties": { "id": 12.0, "left": null, "top": null, "right": null, "bottom": null, "crop": "alfalfa", "stress": "biotic", "country": "IT" }, "geometry": { "type": "Polygon", "coordinates": [ [ [ 10.769515926081326, 44.709296135632961 ], [ 10.770502403581196, 44.711042423622288 ], [ 10.771291585581091, 44.71086397325206 ], [ 10.770520339535738, 44.709155920443635 ], [ 10.769515926081326, 44.709296135632961 ] ] ] } }
]
}
